[{"OBJECT_NAME":"STARLINK-4347","OBJECT_ID":"2022-077AK","EPOCH":"2025-09-13T06:00:02.000160","MEAN_MOTION":15.01264044,"ECCENTRICITY":0.00026184,"INCLINATION":97.6037,"RA_OF_ASC_NODE":76.5056,"ARG_OF_PERICENTER":40.2707,"MEAN_ANOMALY":42.0347,"EPHEMERIS_TYPE":0,"CLASSIFICATION_TYPE":"U","NORAD_CAT_ID":53076,"ELEMENT_SET_NO":999,"REV_AT_EPOCH":573,"BSTAR":-0.0010687536,"MEAN_MOTION_DOT":-0.00013761,"MEAN_MOTION_DDOT":0},{"OBJECT_NAME":"STARLINK-4322","OBJECT_ID":"2022-077AM","EPOCH":"2025-09-13T05:35:06.837792","MEAN_MOTION":15.01262831,"ECCENTRICITY":0.00027318,"INCLINATION":97.6028,"RA_OF_ASC_NODE":76.4857,"ARG_OF_PERICENTER":48.774,"MEAN_ANOMALY":311.372,"EPHEMERIS_TYPE":0,"CLASSIFICATION_TYPE":"U","NORAD_CAT_ID":53078,"ELEMENT_SET_NO":999,"REV_AT_EPOCH":17429,"BSTAR":-2.958231e-5,"MEAN_MOTION_DOT":-4.38e-6,"MEAN_MOTION_DDOT":0},{"OBJECT_NAME":"STARLINK-4327","OBJECT_ID":"2022-077AN","EPOCH":"2025-09-13T05:27:06.846048","MEAN_MOTION":15.01260229,"ECCENTRICITY":0.00016747,"INCLINATION":97.6032,"RA_OF_ASC_NODE":76.4769,"ARG_OF_PERICENTER":70.8818,"MEAN_ANOMALY":289.2587,"EPHEMERIS_TYPE":0,"CLASSIFICATION_TYPE":"U","NORAD_CAT_ID":53079,"ELEMENT_SET_NO":999,"REV_AT_EPOCH":17429,"BSTAR":-1.81577e-5,"MEAN_MOTION_DOT":-2.91e-6,"MEAN_MOTION_DDOT":0},{"OBJECT_NAME":"STARLINK-4330","OBJECT_ID":"2022-077AP","EPOCH":"2025-09-12T18:20:36.368448","MEAN_MOTION":15.01261618,"ECCENTRICITY":7.471e-5,"INCLINATION":97.6041,"RA_OF_ASC_NODE":76.0247,"ARG_OF_PERICENTER":61.6593,"MEAN_ANOMALY":298.4706,"EPHEMERIS_TYPE":0,"CLASSIFICATION_TYPE":"U","NORAD_CAT_ID":53080,"ELEMENT_SET_NO":999,"REV_AT_EPOCH":17422,"BSTAR":6.8895902e-5,"MEAN_MOTION_DOT":8.27e-6,"MEAN_MOTION_DDOT":0},{"OBJECT_NAME":"STARLINK-4326","OBJECT_ID":"2022-077AQ","EPOCH":"2025-09-12T18:20:56.578272","MEAN_MOTION":15.01259518,"ECCENTRICITY":0.0001944,"INCLINATION":97.604,"RA_OF_ASC_NODE":76.008,"ARG_OF_PERICENTER":27.9351,"MEAN_ANOMALY":332.1977,"EPHEMERIS_TYPE":0,"CLASSIFICATION_TYPE":"U","NORAD_CAT_ID":53081,"ELEMENT_SET_NO":999,"REV_AT_EPOCH":17422,"BSTAR":5.210688e-6,"MEAN_MOTION_DOT":9.0e-8,"MEAN_MOTION_DDOT":0},{"OBJECT_NAME":"STARLINK-4321","OBJECT_ID":"2022-077AR","EPOCH":"2025-09-13T05:24:28.132704","MEAN_MOTION":15.0125008,"ECCENTRICITY":0.0001684,"INCLINATION":97.6036,"RA_OF_ASC_NODE":76.4745,"ARG_OF_PERICENTER":90.7972,"MEAN_ANOMALY":269.3445,"EPHEMERIS_TYPE":0,"CLASSIFICATION_TYPE":"U","NORAD_CAT_ID":53082,"ELEMENT_SET_NO":999,"REV_AT_EPOCH":17429,"BSTAR":2.7480828e-5,"MEAN_MOTION_DOT":2.95e-6,"MEAN_MOTION_DDOT":0},{"OBJECT_NAME":"STARLINK-4251","OBJECT_ID":"2022-077AS","EPOCH":"2025-09-13T05:05:47.012352","MEAN_MOTION":15.01260615,"ECCENTRICITY":0.00037211,"INCLINATION":97.6044,"RA_OF_ASC_NODE":76.4571,"ARG_OF_PERICENTER":158.6538,"MEAN_ANOMALY":201.4842,"EPHEMERIS_TYPE":0,"CLASSIFICATION_TYPE":"U","NORAD_CAT_ID":53083,"ELEMENT_SET_NO":999,"REV_AT_EPOCH":17429,"BSTAR":-3.909005e-6,"MEAN_MOTION_DOT":-1.09e-6,"MEAN_MOTION_DDOT":0},{"OBJECT_NAME":"STARLINK-4319","OBJECT_ID":"2022-077AT","EPOCH":"2025-09-13T05:21:46.320192","MEAN_MOTION":15.01262788,"ECCENTRICITY":3.984e-5,"INCLINATION":97.6037,"RA_OF_ASC_NODE":76.4725,"ARG_OF_PERICENTER":89.5856,"MEAN_ANOMALY":270.5414,"EPHEMERIS_TYPE":0,"CLASSIFICATION_TYPE":"U","NORAD_CAT_ID":53084,"ELEMENT_SET_NO":999,"REV_AT_EPOCH":17429,"BSTAR":2.8696835e-5,"MEAN_MOTION_DOT":3.1e-6,"MEAN_MOTION_DDOT":0},{"OBJECT_NAME":"STARLINK-4324","OBJECT_ID":"2022-077AU","EPOCH":"2025-09-13T05:14:07.935360","MEAN_MOTION":15.01265849,"ECCENTRICITY":9.187e-5,"INCLINATION":97.6038,"RA_OF_ASC_NODE":76.47,"ARG_OF_PERICENTER":139.9519,"MEAN_ANOMALY":220.1774,"EPHEMERIS_TYPE":0,"CLASSIFICATION_TYPE":"U","NORAD_CAT_ID":53085,"ELEMENT_SET_NO":999,"REV_AT_EPOCH":17429,"BSTAR":-7.0462724e-5,"MEAN_MOTION_DOT":-9.63e-6,"MEAN_MOTION_DDOT":0},{"OBJECT_NAME":"STARLINK-4318","OBJECT_ID":"2022-077AV","EPOCH":"2025-09-13T05:19:07.866912","MEAN_MOTION":15.01268609,"ECCENTRICITY":0.00015681,"INCLINATION":97.6038,"RA_OF_ASC_NODE":76.4723,"ARG_OF_PERICENTER":87.6012,"MEAN_ANOMALY":272.5392,"EPHEMERIS_TYPE":0,"CLASSIFICATION_TYPE":"U","NORAD_CAT_ID":53086,"ELEMENT_SET_NO":999,"REV_AT_EPOCH":17429,"BSTAR":9.758868e-6,"MEAN_MOTION_DOT":6.7e-7,"MEAN_MOTION_DDOT":0},{"OBJECT_NAME":"STARLINK-4333","OBJECT_ID":"2022-077AX","EPOCH":"2025-09-13T05:13:46.523712","MEAN_MOTION":15.01269077,"ECCENTRICITY":0.00015095,"INCLINATION":97.6024,"RA_OF_ASC_NODE":76.466,"ARG_OF_PERICENTER":159.4207,"MEAN_ANOMALY":200.7079,"EPHEMERIS_TYPE":0,"CLASSIFICATION_TYPE":"U","NORAD_CAT_ID":53088,"ELEMENT_SET_NO":999,"REV_AT_EPOCH":17429,"BSTAR":-0.00016961234,"MEAN_MOTION_DOT":-2.237e-5,"MEAN_MOTION_DDOT":0},{"OBJECT_NAME":"STARLINK-4063","OBJECT_ID":"2022-083A","EPOCH":"2025-09-13T06:22:49.032192","MEAN_MOTION":15.09832779,"ECCENTRICITY":0.0002174,"INCLINATION":53.2164,"RA_OF_ASC_NODE":250.5021,"ARG_OF_PERICENTER":60.799,"MEAN_ANOMALY":299.3219,"EPHEMERIS_TYPE":0,"CLASSIFICATION_TYPE":"U","NORAD_CAT_ID":53132,"ELEMENT_SET_NO":999,"REV_AT_EPOCH":17443,"BSTAR":0.00053870404,"MEAN_MOTION_DOT":8.53e-5,"MEAN_MOTION_DDOT":0},{"OBJECT_NAME":"STARLINK-4150","OBJECT_ID":"2022-083C","EPOCH":"2025-09-13T06:48:36.285984","MEAN_MOTION":15.08837317,"ECCENTRICITY":0.00013741,"INCLINATION":53.2135,"RA_OF_ASC_NODE":250.5284,"ARG_OF_PERICENTER":90.091,"MEAN_ANOMALY":270.024,"EPHEMERIS_TYPE":0,"CLASSIFICATION_TYPE":"U","NORAD_CAT_ID":53134,"ELEMENT_SET_NO":999,"REV_AT_EPOCH":17443,"BSTAR":1.3132041e-5,"MEAN_MOTION_DOT":-7.9e-7,"MEAN_MOTION_DDOT":0},{"OBJECT_NAME":"STARLINK-4023","OBJECT_ID":"2022-083D","EPOCH":"2025-09-13T06:59:12.389568","MEAN_MOTION":15.08835708,"ECCENTRICITY":0.00013878,"INCLINATION":53.2154,"RA_OF_ASC_NODE":250.4959,"ARG_OF_PERICENTER":86.1989,"MEAN_ANOMALY":273.9162,"EPHEMERIS_TYPE":0,"CLASSIFICATION_TYPE":"U","NORAD_CAT_ID":53135,"ELEMENT_SET_NO":999,"REV_AT_EPOCH":17542,"BSTAR":1.3079903e-5,"MEAN_MOTION_DOT":-8.0e-7,"MEAN_MOTION_DDOT":0},{"OBJECT_NAME":"STARLINK-4152","OBJECT_ID":"2022-083E","EPOCH":"2025-09-13T06:53:54.506688","MEAN_MOTION":15.08848397,"ECCENTRICITY":0.00012881,"INCLINATION":53.2157,"RA_OF_ASC_NODE":250.5132,"ARG_OF_PERICENTER":85.7184,"MEAN_ANOMALY":274.3955,"EPHEMERIS_TYPE":0,"CLASSIFICATION_TYPE":"U","NORAD_CAT_ID":53136,"ELEMENT_SET_NO":999,"REV_AT_EPOCH":17542,"BSTAR":4.1362189e-5,"MEAN_MOTION_DOT":3.71e-6,"MEAN_MOTION_DDOT":0},{"OBJECT_NAME":"STARLINK-4145","OBJECT_ID":"2022-083F","EPOCH":"2025-09-13T06:43:18.383232","MEAN_MOTION":15.08836202,"ECCENTRICITY":0.00014157,"INCLINATION":53.2134,"RA_OF_ASC_NODE":250.5453,"ARG_OF_PERICENTER":86.3099,"MEAN_ANOMALY":273.8055,"EPHEMERIS_TYPE":0,"CLASSIFICATION_TYPE":"U","NORAD_CAT_ID":53137,"ELEMENT_SET_NO":999,"REV_AT_EPOCH":17443,"BSTAR":1.852493e-6,"MEAN_MOTION_DOT":-2.58e-6,"MEAN_MOTION_DDOT":0}]
