STARLINK-4347           
1 53076U 22077AK  25256.25002315 -.00013761  00000+0 -10688-2 0  9991
2 53076  97.6037  76.5056 0002618  40.2707  42.0347 15.01264044  5733
STARLINK-4322           
1 53078U 22077AM  25256.23271803 -.00000438  00000+0 -29582-4 0  9993
2 53078  97.6028  76.4857 0002731  48.7740 311.3720 15.01262831174296
STARLINK-4327           
1 53079U 22077AN  25256.22716257 -.00000291  00000+0 -18158-4 0  9994
2 53079  97.6032  76.4769 0001674  70.8818 289.2587 15.01260229174294
STARLINK-4330           
1 53080U 22077AP  25255.76430982  .00000827  00000+0  68896-4 0  9999
2 53080  97.6041  76.0247 0000747  61.6593 298.4706 15.01261618174222
STARLINK-4326           
1 53081U 22077AQ  25255.76454373  .00000009  00000+0  52107-5 0  9991
2 53081  97.6040  76.0080 0001944  27.9351 332.1977 15.01259518174226
STARLINK-4321           
1 53082U 22077AR  25256.22532561  .00000295  00000+0  27481-4 0  9993
2 53082  97.6036  76.4745 0001684  90.7972 269.3445 15.01250080174295
STARLINK-4251           
1 53083U 22077AS  25256.21234968 -.00000109  00000+0 -39090-5 0  9999
2 53083  97.6044  76.4571 0003721 158.6538 201.4842 15.01260615174291
STARLINK-4319           
1 53084U 22077AT  25256.22345278  .00000310  00000+0  28697-4 0  9990
2 53084  97.6037  76.4725 0000398  89.5856 270.5414 15.01262788174292
STARLINK-4324           
1 53085U 22077AU  25256.21814740 -.00000963  00000+0 -70463-4 0  9999
2 53085  97.6038  76.4700 0000918 139.9519 220.1774 15.01265849174292
STARLINK-4318           
1 53086U 22077AV  25256.22161883  .00000067  00000+0  97589-5 0  9996
2 53086  97.6038  76.4723 0001568  87.6012 272.5392 15.01268609174291
STARLINK-4333           
1 53088U 22077AX  25256.21789958 -.00002237  00000+0 -16961-3 0  9992
2 53088  97.6024  76.4660 0001509 159.4207 200.7079 15.01269077174292
STARLINK-4063           
1 53132U 22083A   25256.26584528  .00008530  00000+0  53870-3 0  9990
2 53132  53.2164 250.5021 0002174  60.7990 299.3219 15.09832779174432
STARLINK-4150           
1 53134U 22083C   25256.28375331 -.00000079  00000+0  13132-4 0  9993
2 53134  53.2135 250.5284 0001374  90.0910 270.0240 15.08837317174434
STARLINK-4023           
1 53135U 22083D   25256.29111562 -.00000080  00000+0  13080-4 0  9993
2 53135  53.2154 250.4959 0001387  86.1989 273.9162 15.08835708175427
STARLINK-4152           
1 53136U 22083E   25256.28743642  .00000371  00000+0  41362-4 0  9999
2 53136  53.2157 250.5132 0001288  85.7184 274.3955 15.08848397175420
STARLINK-4145           
1 53137U 22083F   25256.28007388 -.00000258  00000+0  18525-5 0  9991
2 53137  53.2134 250.5453 0001415  86.3099 273.8055 15.08836202174433
